NORAD_CAT_ID,OBJECT_NAME,OBJECT_TYPE,EPOCH,MEAN_MOTION,ECCENTRICITY,INCLINATION,RA_OF_ASC_NODE,ARG_OF_PERICENTER,MEAN_ANOMALY,BSTAR,MEAN_MOTION_DOT,MEAN_MOTION_DDOT,TLE_LINE0,TLE_LINE1,TLE_LINE2,SEMIMAJOR_AXIS,PERIOD,APOGEE,PERIGEE,DECAYED
52102.0,STARLINK-3709,PAYLOAD,2024-06-30 16:53:54,15.08849585,0.0001404,53.2181,328.8807,116.8923,243.2213,0.0012392,0.00019494,0.0,0 STARLINK-3709,1 52102U 22029Q   24182.70410592  .00019494  00000-0  12392-2 0  9996,2 52102  53.2181 328.8807 0001404 116.8923 243.2213 15.08849585127647,6917.851,95.437,540.687,538.745,0.0
52102.0,STARLINK-3709,PAYLOAD,2024-07-01 02:26:12,15.08876747,0.0001349,53.2182,327.096,114.4131,245.7002,0.0015586,0.00024629,0.0,0 STARLINK-3709,1 52102U 22029Q   24183.10153755  .00024629  00000-0  15586-2 0  9990,2 52102  53.2182 327.0960 0001349 114.4131 245.7002 15.08876747127702,6917.768,95.435,540.566,538.7,0.0
52102.0,STARLINK-3709,PAYLOAD,2024-07-01 10:23:08,15.08842305,0.0001296,53.2179,325.6092,103.8005,256.3131,0.00039756,6.045e-05,0.0,0 STARLINK-3709,1 52102U 22029Q   24183.43274119  .00006045  00000-0  39756-3 0  9992,2 52102  53.2179 325.6092 0001296 103.8005 256.3131 15.08842305127750,6917.873,95.437,540.635,538.842,0.0
52102.0,STARLINK-3709,PAYLOAD,2024-07-01 13:33:55,15.08841128,0.0001122,53.2175,325.0149,102.037,258.0748,0.00072703,0.00011302,0.0,0 STARLINK-3709,1 52102U 22029Q   24183.56522152  .00011302  00000-0  72703-3 0  9990,2 52102  53.2175 325.0149 0001122 102.0370 258.0748 15.08841128127774,6917.877,95.437,540.518,538.966,0.0
52102.0,STARLINK-3709,PAYLOAD,2024-07-01 16:44:41,15.08839523,0.0001092,53.2174,324.42,102.3787,257.7328,0.0012325,0.00019381,0.0,0 STARLINK-3709,1 52102U 22029Q   24183.69770184  .00019381  00000-0  12325-2 0  9992,2 52102  53.2174 324.4200 0001092 102.3787 257.7328 15.08839523127793,6917.882,95.438,540.502,538.991,0.0
52102.0,STARLINK-3709,PAYLOAD,2024-07-02 13:24:42,15.08831478,5.48e-05,53.216,320.5515,109.2494,250.8557,0.0010276,0.000161,0.0,0 STARLINK-3709,1 52102U 22029Q   24184.55882444  .00016100  00000-0  10276-2 0  9990,2 52102  53.2160 320.5515 0000548 109.2494 250.8557 15.08831478127924,6917.906,95.438,540.151,539.392,0.0
52102.0,STARLINK-3709,PAYLOAD,2024-07-02 18:10:51,15.08840299,8.37e-05,53.2153,319.6574,93.0415,267.0673,0.0019925,0.00031565,0.0,0 STARLINK-3709,1 52102U 22029Q   24184.75754585  .00031565  00000-0  19925-2 0  9998,2 52102  53.2153 319.6574 0000837  93.0415 267.0673 15.08840299127957,6917.879,95.438,540.324,539.165,0.0
52102.0,STARLINK-3709,PAYLOAD,2024-07-03 02:07:47,15.08860795,8.4e-05,53.2156,318.1702,89.6095,270.4994,0.001924,0.00030483,0.0,0 STARLINK-3709,1 52102U 22029Q   24185.08874306  .00030483  00000-0  19240-2 0  9997,2 52102  53.2156 318.1702 0000840  89.6095 270.4994 15.08860795128000,6917.817,95.436,540.263,539.101,0.0
52102.0,STARLINK-3709,PAYLOAD,2024-07-03 13:15:29,15.08846546,9.15e-05,53.215,316.0917,95.7705,264.3391,0.0010782,0.00016916,0.0,0 STARLINK-3709,1 52102U 22029Q   24185.55242481  .00016916  00000-0  10782-2 0  9999,2 52102  53.2150 316.0917 0000915  95.7705 264.3391 15.08846546128076,6917.86,95.437,540.358,539.092,0.0
52102.0,STARLINK-3709,PAYLOAD,2024-07-03 14:50:52,15.08844582,8.86e-05,53.2158,315.795,97.1506,262.9587,0.0010794,0.00016935,0.0,0 STARLINK-3709,1 52102U 22029Q   24185.61866488  .00016935  00000-0  10794-2 0  9999,2 52102  53.2158 315.7950 0000886  97.1506 262.9587 15.08844582128089,6917.866,95.437,540.344,539.118,0.0
52102.0,STARLINK-3709,PAYLOAD,2024-07-04 13:06:16,15.08842486,0.0001287,53.2161,311.6293,102.8936,257.22,0.00046042,7.048e-05,0.0,0 STARLINK-3709,1 52102U 22029Q   24186.54602372  .00007048  00000-0  46042-3 0  9993,2 52102  53.2161 311.6293 0001287 102.8936 257.2200 15.08842486128221,6917.873,95.437,540.628,538.847,0.0
52102.0,STARLINK-3709,PAYLOAD,2024-07-04 14:41:39,15.0883217,9.03e-05,53.2164,311.3337,102.5037,257.6057,0.0014542,0.00022926,0.0,0 STARLINK-3709,1 52102U 22029Q   24186.61226583  .00022926  00000-0  14542-2 0  9998,2 52102  53.2164 311.3337 0000903 102.5037 257.6057 15.08832170128237,6917.904,95.438,540.394,539.145,0.0
52102.0,STARLINK-3709,PAYLOAD,2024-07-05 12:57:03,15.08847286,0.0001056,53.2165,307.1712,77.6494,282.4617,0.0012198,0.00019182,0.0,0 STARLINK-3709,1 52102U 22029Q   24187.53962475  .00019182  00000-0  12198-2 0  9992,2 52102  53.2165 307.1712 0001056  77.6494 282.4617 15.08847286128374,6917.858,95.437,540.454,538.993,0.0
52102.0,STARLINK-3709,PAYLOAD,2024-07-05 14:32:26,15.08849962,0.0001041,53.2165,306.8737,84.8111,275.3,0.001364,0.00021493,0.0,0 STARLINK-3709,1 52102U 22029Q   24187.60586411  .00021493  00000-0  13640-2 0  9993,2 52102  53.2165 306.8737 0001041  84.8111 275.3000 15.08849962128388,6917.85,95.437,540.435,538.995,0.0
52102.0,STARLINK-3709,PAYLOAD,2024-07-06 12:47:50,15.08827897,0.0001145,53.2171,302.7107,75.1278,284.9841,0.00088368,0.00013799,0.0,0 STARLINK-3709,1 52102U 22029Q   24188.53322688  .00013799  00000-0  88368-3 0  9990,2 52102  53.2171 302.7107 0001145  75.1278 284.9841 15.08827897128521,6917.917,95.438,540.574,538.99,0.0
52102.0,STARLINK-3709,PAYLOAD,2024-07-06 14:23:13,15.08829143,0.0001123,53.2172,302.4129,81.4398,278.6722,0.0010308,0.0001615,0.0,0 STARLINK-3709,1 52102U 22029Q   24188.59946732  .00016150  00000-0  10308-2 0  9990,2 52102  53.2172 302.4129 0001123  81.4398 278.6722 15.08829143128537,6917.914,95.438,540.555,539.002,0.0
52102.0,STARLINK-3709,PAYLOAD,2024-07-06 17:34:00,15.08830628,0.0001189,53.2178,301.817,78.0513,282.0612,0.00067106,0.00010405,0.0,0 STARLINK-3709,1 52102U 22029Q   24188.73194845  .00010405  00000-0  67106-3 0  9992,2 52102  53.2178 301.8170 0001189  78.0513 282.0612 15.08830628128554,6917.909,95.438,540.597,538.951,0.0
52102.0,STARLINK-3709,PAYLOAD,2024-07-07 07:52:28,15.08836847,0.0001232,53.2182,299.1403,81.3542,278.759,0.00043634,6.663e-05,0.0,0 STARLINK-3709,1 52102U 22029Q   24189.32811094  .00006663  00000-0  43634-3 0  9991,2 52102  53.2182 299.1403 0001232  81.3542 278.7590 15.08836847128641,6917.89,95.438,540.607,538.903,0.0
52102.0,STARLINK-3709,PAYLOAD,2024-07-07 14:14:01,15.08839407,0.0001157,53.2174,297.952,79.5923,280.52,0.00024287,3.579e-05,0.0,0 STARLINK-3709,1 52102U 22029Q   24189.59307061  .00003579  00000-0  24287-3 0  9990,2 52102  53.2174 297.9520 0001157  79.5923 280.5200 15.08839407128684,6917.882,95.438,540.548,538.947,0.0
52102.0,STARLINK-3709,PAYLOAD,2024-07-08 12:29:25,15.08838798,0.0001152,53.2171,293.7875,80.4841,279.6282,0.00015998,2.259e-05,0.0,0 STARLINK-3709,1 52102U 22029Q   24190.52043187  .00002259  00000-0  15998-3 0  9994,2 52102  53.2171 293.7875 0001152  80.4841 279.6282 15.08838798128820,6917.884,95.438,540.546,538.952,0.0
52102.0,STARLINK-3709,PAYLOAD,2024-07-08 14:04:48,15.0884195,0.0001141,53.2168,293.4903,80.2646,279.8475,0.00021047,3.064e-05,0.0,0 STARLINK-3709,1 52102U 22029Q   24190.58667055  .00003064  00000-0  21047-3 0  9993,2 52102  53.2168 293.4903 0001141  80.2646 279.8475 15.08841950128835,6917.874,95.437,540.529,538.95,0.0
52102.0,STARLINK-3709,PAYLOAD,2024-07-08 23:37:06,15.08852249,0.0001176,53.2174,291.7061,79.5984,280.5141,0.00032505,4.891e-05,0.0,0 STARLINK-3709,1 52102U 22029Q   24190.98410541  .00004891  00000-0  32505-3 0  9993,2 52102  53.2174 291.7061 0001176  79.5984 280.5141 15.08852249128890,6917.843,95.437,540.521,538.894,0.0
52102.0,STARLINK-3709,PAYLOAD,2024-07-09 12:20:12,15.08835721,0.0001624,53.2185,289.3272,88.5261,271.5917,-4.1469e-05,-9.48e-06,0.0,0 STARLINK-3709,1 52102U 22029Q   24191.51403180 -.00000948  00000-0 -41469-4 0  9995,2 52102  53.2185 289.3272 0001624  88.5261 271.5917 15.08835721128971,6917.893,95.438,540.882,538.635,0.0
52102.0,STARLINK-3709,PAYLOAD,2024-07-09 13:55:35,15.08840565,0.0001368,53.2177,289.0294,83.2276,276.8872,7.5132e-05,9.08e-06,0.0,0 STARLINK-3709,1 52102U 22029Q   24191.58027017  .00000908  00000-0  75132-4 0  9991,2 52102  53.2177 289.0294 0001368  83.2276 276.8872 15.08840565128987,6917.879,95.438,540.69,538.797,0.0
52102.0,STARLINK-3709,PAYLOAD,2024-07-09 17:06:21,15.08843084,0.0001431,53.2181,288.4356,89.2388,270.8768,0.00010576,1.396e-05,0.0,0 STARLINK-3709,1 52102U 22029Q   24191.71274895  .00001396  00000-0  10576-3 0  9996,2 52102  53.2181 288.4356 0001431  89.2388 270.8768 15.08843084129006,6917.871,95.437,540.726,538.746,0.0
52102.0,STARLINK-3709,PAYLOAD,2024-07-10 10:35:36,15.08842027,0.0001509,53.2184,285.1652,89.8818,270.2347,0.00011293,1.51e-05,0.0,0 STARLINK-3709,1 52102U 22029Q   24192.44138975  .00001510  00000-0  11293-3 0  9990,2 52102  53.2184 285.1652 0001509  89.8818 270.2347 15.08842027129117,6917.874,95.437,540.783,538.695,0.0
52102.0,STARLINK-3709,PAYLOAD,2024-07-11 12:01:46,15.08842864,0.0001236,53.2168,280.4079,97.7268,262.3865,7.8465e-05,9.61e-06,0.0,0 STARLINK-3709,1 52102U 22029Q   24193.50122933  .00000961  00000-0  78465-4 0  9999,2 52102  53.2168 280.4079 0001236  97.7268 262.3865 15.08842864129277,6917.872,95.437,540.592,538.882,0.0
52102.0,STARLINK-3709,PAYLOAD,2024-07-12 05:31:01,15.08831753,0.0001151,53.2158,277.1369,99.4637,260.6486,-3.5356e-05,-8.5e-06,0.0,0 STARLINK-3709,1 52102U 22029Q   24194.22987430 -.00000850  00000-0 -35356-4 0  9991,2 52102  53.2158 277.1369 0001151  99.4637 260.6486 15.08831753129383,6917.906,95.438,540.567,538.974,0.0
52102.0,STARLINK-3709,PAYLOAD,2024-07-12 13:27:56,15.08842566,0.0001179,53.216,275.6509,86.0057,274.107,0.00017023,2.423e-05,0.0,0 STARLINK-3709,1 52102U 22029Q   24194.56107140  .00002423  00000-0  17023-3 0  9996,2 52102  53.2160 275.6509 0001179  86.0057 274.1070 15.08842566129432,6917.873,95.437,540.553,538.922,0.0
52102.0,STARLINK-3709,PAYLOAD,2024-07-12 16:38:42,15.08846686,0.0001262,53.2155,275.0561,84.1613,275.9523,0.00026754,3.973e-05,0.0,0 STARLINK-3709,1 52102U 22029Q   24194.69355016  .00003973  00000-0  26754-3 0  9999,2 52102  53.2155 275.0561 0001262  84.1613 275.9523 15.08846686129459,6917.86,95.437,540.598,538.852,0.0
